#aV2006  3 31  0  0   .00000000      96 DD+AD WGS84 FIT  NGA
## 1368 432000.00000000   900.00000000 53825  .0000000000000
+   29     1  2  3  4  5  6  7  8  9 10 11 13 14 15 16 17 18
+         19 20 21 22 23 24 25 26 27 28 29 30  0  0  0  0  0
+          0  0  0  0  0  0  0  0  0  0  0  0  0  0  0  0  0
+          0  0  0  0  0  0  0  0  0  0  0  0  0  0  0  0  0
+          0  0  0  0  0  0  0  0  0  0  0  0  0  0  0  0  0
++         0  0  0  0  0  0  0  0  0  0  0  0  0  0  0  0  0
++         0  0  0  0  0  0  0  0  0  0  0  0  0  0  0  0  0
++         0  0  0  0  0  0  0  0  0  0  0  0  0  0  0  0  0
++         0  0  0  0  0  0  0  0  0  0  0  0  0  0  0  0  0
++         0  0  0  0  0  0  0  0  0  0  0  0  0  0  0  0  0
%c cc cc ccc ccc cccc cccc cccc cccc ccccc ccccc ccccc ccccc
%c cc cc ccc ccc cccc cccc cccc cccc ccccc ccccc ccccc ccccc
%f  0.0000000  0.000000000  0.00000000000  0.000000000000000
%f  0.0000000  0.000000000  0.00000000000  0.000000000000000
%i    0    0    0    0      0      0      0      0         0
%i    0    0    0    0      0      0      0      0         0
/*      NGA, ST. LOUIS,MO.                                  
/*   EPHEMERIS COMPUTED FROM  3 DAYS OF DATA                
/* CCCCCCCCCCCCCCCCCCCCCCCCCCCCCCCCCCCCCCCCCCCCCCCCCCCCCCCCC
/* CCCCCCCCCCCCCCCCCCCCCCCCCCCCCCCCCCCCCCCCCCCCCCCCCCCCCCCCC
*  2006  3 31  1 45   .00000000                                                 
P  1  -2918.774793 -14457.685554  22286.473339     44.360737                    
V  1  27525.785672  -3450.124208   1338.865539       .020791                    
P  2  11058.509147  22733.559682   8181.047007    -11.773808                    
V  2  -8968.481739  -6511.010276  29060.885003       .020106                    
P  3  -9631.769240 -13680.423290 -20837.589956     86.210167                    
V  3  25185.148807  -7165.474235  -6687.681522       .031797                    
P  4   1274.748013  20634.132821  16437.223385    191.825566                    
V  4 -14830.677891 -15195.344721  20527.400097       .104905                    
P  5  15414.470034   2819.038146  21243.467767   -249.725076                    
V  5  -7372.896186  26525.995808   1979.638229       .719282                    
P  6  25851.072333  -6080.358502  -1376.912670    440.343274                    
V  6   2629.415954   3142.163892  31041.966384       .259492                    
P  7  20003.126081 -13101.443530 -11466.225963    521.709036                    
V  7  15354.131179   -365.311038  26188.004463       .055547                    
P  8  -7063.192715  14585.793414 -21106.118767    -61.180419                    
V  8 -16609.761682 -20697.362150  -9195.596348      -.012206                    
P  9  20699.996240  13845.436484   9092.615848     14.068468                    
V  9   6205.588681  10826.637134 -28622.686987       .015408                    
P 10   4423.357945  19842.786370 -17010.873665     81.021372                    
V 10  -9623.764575  19316.367507  20443.890873       .005653                    
P 11 -22594.366684 -10462.377763   9513.165632    317.207588                    
V 11  -6250.901289 -11271.002977 -26803.062244       .026707                    
P 13 -25508.750237   6144.040935  -3975.041186     51.141744                    
V 13  -5146.186276  -1153.219719  31944.164585       .026209                    
P 14  13043.606350 -14223.267194  18295.161305    -16.863282                    
V 14  22962.078285  -2309.397416 -18276.765308       .006838                    
P 15   8035.582935 -14304.031738 -20978.887213    588.845980                    
V 15  15859.536722  21066.109669  -8739.019350       .060741                    
P 16    419.503437 -23703.322718 -11789.530434     34.039759                    
V 16   7761.779346 -13223.072910  26759.609043       .021218                    
P 17 -14304.245982  14403.017203  17064.504267     76.038873                    
V 17 -21745.189292   1695.146584 -19726.752233       .055232                    
P 18  17004.774353 -14440.514078 -14088.090888   -228.427767                    
V 18  -4970.504983  17652.416726 -24220.850314      -.018919                    
P 19 -20626.082023  -8159.636220 -14532.879739    -17.065228                    
V 19  18311.540697  -4020.468708 -23526.319584       .013674                    
P 20 -15360.074694  -2005.913528  21482.407814    -29.567583                    
V 20   9167.512935 -25934.641123   4150.971579       .007650                    
P 21  14794.470830  -5947.983156 -21247.119700     17.658721                    
V 21  16078.715073  21808.187276   4563.271269       .030085                    
P 22  11972.105329 -23608.734550  -2016.266109     80.939202                    
V 22   1609.366679   3712.850576 -31513.075403       .035156                    
P 23 -25411.862034  -1271.263475   7799.007496    145.477635                    
V 23   9471.789240  -3899.250855  29726.986033      -.011717                    
P 24 -10756.837266  11124.125034  21806.380584     96.937937                    
V 24 -16367.200502 -21665.836783   3259.586255       .029967                    
P 25  -5782.662593 -21254.644091  15155.916881     -1.674614                    
V 25  14594.019442  11747.307955  22771.867582       .126930                    
P 26  17851.814909   9439.763935 -17938.182046    -73.473314                    
V 26 -21439.441367   3630.563962 -19269.273376      -.101075                    
P 27 -14470.063443   6008.939841 -20893.215653     42.193959                    
V 27 -18539.248550 -20856.246284   6319.905779       .016134                    
P 28 -13038.853727  22187.079991  -5496.576515     30.459578                    
V 28   -104.321374  -8023.034936 -30923.910149      -.006609                    
P 29  14222.010729  10682.827782 -19574.240689    574.137701                    
V 29 -24718.278719   5110.070378 -14727.308395       .092686                    
P 30  16899.367754  -8580.446035  18285.607522     71.366829                    
V 30  -5933.808408  23206.407509  16244.623089       .609758                    
EOF
